start=new Date('2022-04-19T00:00:00.000Z').valueOf();
sats=[{"REF_FRAME":"TEME","PERIAPSIS":"546.018","RCS_SIZE":"MEDIUM","TLE_LINE2":"2 48095  53.0546  71.0346 0001704  58.2986 301.8169 15.06404930 58241","MEAN_ELEMENT_THEORY":"SGP4","OBJECT_ID":"2021-027D","PERIOD":"95.592","BSTAR":"0.00012408000000","APOAPSIS":"548.379","INCLINATION":"53.0546","FILE":"3407402","MEAN_ANOMALY":"301.8169","DECAY_DATE":null,"CENTER_NAME":"EARTH","EPOCH":"2022-04-18T14:58:12.768960","OBJECT_TYPE":"PAYLOAD","TLE_LINE1":"1 48095U 21027D   22108.62375890  .00001567  00000-0  12408-3 0  9998","MEAN_MOTION_DOT":"0.00001567","REV_AT_EPOCH":"5824","ARG_OF_PERICENTER":"58.2986","COUNTRY_CODE":"US","ELEMENT_SET_NO":"999","MEAN_MOTION":"15.06404930","MEAN_MOTION_DDOT":"0.0000000000000","ECCENTRICITY":"0.00017040","NORAD_CAT_ID":"48095","SITE":"AFETR","RA_OF_ASC_NODE":"71.0346","LAUNCH_DATE":"2021-04-07","EPHEMERIS_TYPE":"0","GP_ID":"201579173","OBJECT_NAME":"STARLINK-2414","SEMIMAJOR_AXIS":"6925.333","TIME_SYSTEM":"UTC","CLASSIFICATION_TYPE":"U"},{"PERIAPSIS":"545.938","REF_FRAME":"TEME","TLE_LINE2":"2 48096  53.0541  71.1526 0001868  60.0294 300.0880 15.06394141 58223","RCS_SIZE":"LARGE","MEAN_ELEMENT_THEORY":"SGP4","PERIOD":"95.593","OBJECT_ID":"2021-027E","INCLINATION":"53.0541","APOAPSIS":"548.525","BSTAR":"0.00014946000000","FILE":"3407402","MEAN_ANOMALY":"300.0880","CENTER_NAME":"EARTH","EPOCH":"2022-04-18T14:21:04.326336","DECAY_DATE":null,"MEAN_MOTION_DOT":"0.00001945","TLE_LINE1":"1 48096U 21027E   22108.59796674  .00001945  00000-0  14946-3 0  9991","OBJECT_TYPE":"PAYLOAD","ELEMENT_SET_NO":"999","COUNTRY_CODE":"US","ARG_OF_PERICENTER":"60.0294","REV_AT_EPOCH":"5822","MEAN_MOTION_DDOT":"0.0000000000000","MEAN_MOTION":"15.06394141","ECCENTRICITY":"0.00018680","RA_OF_ASC_NODE":"71.1526","SITE":"AFETR","NORAD_CAT_ID":"48096","EPHEMERIS_TYPE":"0","LAUNCH_DATE":"2021-04-07","CLASSIFICATION_TYPE":"U","TIME_SYSTEM":"UTC","SEMIMAJOR_AXIS":"6925.367","OBJECT_NAME":"STARLINK-2417","GP_ID":"201580425"},{"MEAN_ELEMENT_THEORY":"SGP4","PERIOD":"95.592","OBJECT_ID":"2021-027F","PERIAPSIS":"546.320","REF_FRAME":"TEME","TLE_LINE2":"2 48097  53.0555  51.2513 0001261  84.7967 275.3166 15.06406469 58500","RCS_SIZE":"LARGE","FILE":"3407402","MEAN_ANOMALY":"275.3166","INCLINATION":"53.0555","APOAPSIS":"548.067","BSTAR":"0.00003805100000","ELEMENT_SET_NO":"999","COUNTRY_CODE":"US","ARG_OF_PERICENTER":"84.7967","REV_AT_EPOCH":"5850","MEAN_MOTION_DDOT":"0.0000000000000","MEAN_MOTION":"15.06406469","CENTER_NAME":"EARTH","EPOCH":"2022-04-18T13:51:51.964992","DECAY_DATE":null,"MEAN_MOTION_DOT":"0.00000285","TLE_LINE1":"1 48097U 21027F   22108.57768478  .00000285  00000-0  38051-4 0  9991","OBJECT_TYPE":"PAYLOAD","EPHEMERIS_TYPE":"0","LAUNCH_DATE":"2021-04-07","CLASSIFICATION_TYPE":"U","TIME_SYSTEM":"UTC","SEMIMAJOR_AXIS":"6925.329","OBJECT_NAME":"STARLINK-2418","GP_ID":"201580676","ECCENTRICITY":"0.00012610","RA_OF_ASC_NODE":"51.2513","SITE":"AFETR","NORAD_CAT_ID":"48097"},{"INCLINATION":"53.0550","BSTAR":"0.00051924000000","APOAPSIS":"548.285","FILE":"3406909","MEAN_ANOMALY":"294.4354","REF_FRAME":"TEME","PERIAPSIS":"546.100","TLE_LINE2":"2 48098  53.0550  61.3502 0001577  65.6800 294.4354 15.06406855 58353","RCS_SIZE":"LARGE","MEAN_ELEMENT_THEORY":"SGP4","OBJECT_ID":"2021-027G","PERIOD":"95.592","ECCENTRICITY":"0.00015770","RA_OF_ASC_NODE":"61.3502","NORAD_CAT_ID":"48098","SITE":"AFETR","LAUNCH_DATE":"2021-04-07","EPHEMERIS_TYPE":"0","SEMIMAJOR_AXIS":"6925.328","CLASSIFICATION_TYPE":"U","TIME_SYSTEM":"UTC","GP_ID":"201545971","OBJECT_NAME":"STARLINK-2421","CENTER_NAME":"EARTH","EPOCH":"2022-04-18T13:18:42.613632","DECAY_DATE":null,"MEAN_MOTION_DOT":"0.00007462","OBJECT_TYPE":"PAYLOAD","TLE_LINE1":"1 48098U 21027G   22108.55465988  .00007462  00000-0  51924-3 0  9997","COUNTRY_CODE":"US","ELEMENT_SET_NO":"999","REV_AT_EPOCH":"5835","ARG_OF_PERICENTER":"65.6800","MEAN_MOTION":"15.06406855","MEAN_MOTION_DDOT":"0.0000000000000"},{"EPHEMERIS_TYPE":"0","LAUNCH_DATE":"2021-04-07","CLASSIFICATION_TYPE":"U","TIME_SYSTEM":"UTC","SEMIMAJOR_AXIS":"6925.368","OBJECT_NAME":"STARLINK-2428","GP_ID":"201579674","ECCENTRICITY":"0.00015880","RA_OF_ASC_NODE":"71.1040","SITE":"AFETR","NORAD_CAT_ID":"48099","ELEMENT_SET_NO":"999","COUNTRY_CODE":"US","ARG_OF_PERICENTER":"62.0863","REV_AT_EPOCH":"5822","MEAN_MOTION_DDOT":"0.0000000000000","MEAN_MOTION":"15.06393637","EPOCH":"2022-04-18T14:36:59.753088","CENTER_NAME":"EARTH","DECAY_DATE":null,"MEAN_MOTION_DOT":"-0.00000474","TLE_LINE1":"1 48099U 21027H   22108.60902492 -.00000474  00000-0 -12892-4 0  9990","OBJECT_TYPE":"PAYLOAD","FILE":"3407402","MEAN_ANOMALY":"298.0286","INCLINATION":"53.0569","APOAPSIS":"548.333","BSTAR":"-0.00001289200000","MEAN_ELEMENT_THEORY":"SGP4","PERIOD":"95.593","OBJECT_ID":"2021-027H","PERIAPSIS":"546.133","REF_FRAME":"TEME","TLE_LINE2":"2 48099  53.0569  71.1040 0001588  62.0863 298.0286 15.06393637 58225","RCS_SIZE":"LARGE"},{"MEAN_MOTION":"15.06430002","MEAN_MOTION_DDOT":"0.0000000000000","REV_AT_EPOCH":"5854","ARG_OF_PERICENTER":"69.5395","COUNTRY_CODE":"US","ELEMENT_SET_NO":"999","OBJECT_TYPE":"PAYLOAD","TLE_LINE1":"1 48100U 21027J   22108.83571426  .00018344  00000-0  12462-2 0  9991","MEAN_MOTION_DOT":"0.00018344","DECAY_DATE":null,"CENTER_NAME":"EARTH","EPOCH":"2022-04-18T20:03:25.712064","GP_ID":"201579925","OBJECT_NAME":"STARLINK-2430","SEMIMAJOR_AXIS":"6925.257","CLASSIFICATION_TYPE":"U","TIME_SYSTEM":"UTC","LAUNCH_DATE":"2021-04-07","EPHEMERIS_TYPE":"0","NORAD_CAT_ID":"48100","SITE":"AFETR","RA_OF_ASC_NODE":"50.0846","ECCENTRICITY":"0.00016230","OBJECT_ID":"2021-027J","PERIOD":"95.590","MEAN_ELEMENT_THEORY":"SGP4","RCS_SIZE":"MEDIUM","TLE_LINE2":"2 48100  53.0555  50.0846 0001623  69.5395 290.5768 15.06430002 58540","REF_FRAME":"TEME","PERIAPSIS":"545.998","MEAN_ANOMALY":"290.5768","FILE":"3407402","BSTAR":"0.00124620000000","APOAPSIS":"548.246","INCLINATION":"53.0555"},{"BSTAR":"0.00093973000000","APOAPSIS":"548.405","INCLINATION":"53.0557","FILE":"3407402","MEAN_ANOMALY":"312.6654","REF_FRAME":"TEME","PERIAPSIS":"545.890","RCS_SIZE":"LARGE","TLE_LINE2":"2 48101  53.0557  60.1617 0001816  47.4488 312.6654 15.06421621 58405","MEAN_ELEMENT_THEORY":"SGP4","OBJECT_ID":"2021-027K","PERIOD":"95.591","ECCENTRICITY":"0.00018160","NORAD_CAT_ID":"48101","SITE":"AFETR","RA_OF_ASC_NODE":"60.1617","LAUNCH_DATE":"2021-04-07","EPHEMERIS_TYPE":"0","GP_ID":"201580176","OBJECT_NAME":"STARLINK-2436","SEMIMAJOR_AXIS":"6925.282","CLASSIFICATION_TYPE":"U","TIME_SYSTEM":"UTC","DECAY_DATE":null,"CENTER_NAME":"EARTH","EPOCH":"2022-04-18T19:39:30.435264","OBJECT_TYPE":"PAYLOAD","TLE_LINE1":"1 48101U 21027K   22108.81910226  .00013752  00000-0  93973-3 0  9990","MEAN_MOTION_DOT":"0.00013752","REV_AT_EPOCH":"5840","ARG_OF_PERICENTER":"47.4488","COUNTRY_CODE":"US","ELEMENT_SET_NO":"999","MEAN_MOTION":"15.06421621","MEAN_MOTION_DDOT":"0.0000000000000"},{"ECCENTRICITY":"0.00017170","NORAD_CAT_ID":"48102","SITE":"AFETR","RA_OF_ASC_NODE":"49.9661","LAUNCH_DATE":"2021-04-07","EPHEMERIS_TYPE":"0","GP_ID":"201578924","OBJECT_NAME":"STARLINK-2437","SEMIMAJOR_AXIS":"6925.295","CLASSIFICATION_TYPE":"U","TIME_SYSTEM":"UTC","DECAY_DATE":null,"CENTER_NAME":"EARTH","EPOCH":"2022-04-18T20:40:35.397984","OBJECT_TYPE":"PAYLOAD","TLE_LINE1":"1 48102U 21027L   22108.86152081  .00015464  00000-0  10543-2 0  9996","MEAN_MOTION_DOT":"0.00015464","REV_AT_EPOCH":"5854","ARG_OF_PERICENTER":"64.3519","COUNTRY_CODE":"US","ELEMENT_SET_NO":"999","MEAN_MOTION":"15.06417329","MEAN_MOTION_DDOT":"0.0000000000000","BSTAR":"0.00105430000000","APOAPSIS":"548.350","INCLINATION":"53.0571","FILE":"3407402","MEAN_ANOMALY":"295.7647","REF_FRAME":"TEME","PERIAPSIS":"545.971","RCS_SIZE":"LARGE","TLE_LINE2":"2 48102  53.0571  49.9661 0001717  64.3519 295.7647 15.06417329 58547","MEAN_ELEMENT_THEORY":"SGP4","OBJECT_ID":"2021-027L","PERIOD":"95.591"},{"CENTER_NAME":"EARTH","EPOCH":"2022-04-18T12:53:28.981536","DECAY_DATE":null,"MEAN_MOTION_DOT":"0.00003638","OBJECT_TYPE":"PAYLOAD","TLE_LINE1":"1 48103U 21027M   22108.53714099  .00003638  00000-0  26295-3 0  9996","COUNTRY_CODE":"US","ELEMENT_SET_NO":"999","REV_AT_EPOCH":"5809","ARG_OF_PERICENTER":"63.1277","MEAN_MOTION":"15.06407996","MEAN_MOTION_DDOT":"0.0000000000000","ECCENTRICITY":"0.00015420","RA_OF_ASC_NODE":"51.4081","NORAD_CAT_ID":"48103","SITE":"AFETR","LAUNCH_DATE":"2021-04-07","EPHEMERIS_TYPE":"0","SEMIMAJOR_AXIS":"6925.324","TIME_SYSTEM":"UTC","CLASSIFICATION_TYPE":"U","GP_ID":"201551498","OBJECT_NAME":"STARLINK-2438","REF_FRAME":"TEME","PERIAPSIS":"546.121","TLE_LINE2":"2 48103  53.0555  51.4081 0001542  63.1277 296.9869 15.06407996 58096","RCS_SIZE":"LARGE","MEAN_ELEMENT_THEORY":"SGP4","OBJECT_ID":"2021-027M","PERIOD":"95.592","INCLINATION":"53.0555","BSTAR":"0.00026295000000","APOAPSIS":"548.257","FILE":"3407111","MEAN_ANOMALY":"296.9869"},{"MEAN_MOTION_DOT":"0.00001769","TLE_LINE1":"1 48104U 21027N   22108.88131570  .00001769  00000-0  13761-3 0  9999","OBJECT_TYPE":"PAYLOAD","CENTER_NAME":"EARTH","EPOCH":"2022-04-18T21:09:05.676480","DECAY_DATE":null,"MEAN_MOTION_DDOT":"0.0000000000000","MEAN_MOTION":"15.06398327","ELEMENT_SET_NO":"999","COUNTRY_CODE":"US","ARG_OF_PERICENTER":"70.7282","REV_AT_EPOCH":"5848","RA_OF_ASC_NODE":"54.8854","SITE":"AFETR","NORAD_CAT_ID":"48104","ECCENTRICITY":"0.00014190","CLASSIFICATION_TYPE":"U","TIME_SYSTEM":"UTC","SEMIMAJOR_AXIS":"6925.354","OBJECT_NAME":"STARLINK-2439","GP_ID":"201580426","EPHEMERIS_TYPE":"0","LAUNCH_DATE":"2021-04-07","TLE_LINE2":"2 48104  53.0559  54.8854 0001419  70.7282 289.3861 15.06398327 58487","RCS_SIZE":"LARGE","PERIAPSIS":"546.236","REF_FRAME":"TEME","PERIOD":"95.592","OBJECT_ID":"2021-027N","MEAN_ELEMENT_THEORY":"SGP4","INCLINATION":"53.0559","APOAPSIS":"548.201","BSTAR":"0.00013761000000","MEAN_ANOMALY":"289.3861","FILE":"3407402"}];
